ORBCOMM FM103           
1 40091U 14040F   26003.44392889  .00001568  00000+0  37008-3 0  9991
2 40091  47.0039 151.8000 0001355 143.1745 216.9234 14.58578489593332
ORBCOMM FM114           
1 41179U 15081A   26003.18638716  .00001426  00000+0  33968-3 0  9992
2 41179  47.0054  61.9697 0002318 190.3615 169.7223 14.58600382533661
ORBCOMM FM119           
1 41180U 15081B   26003.32019551  .00001554  00000+0  36730-3 0  9992
2 41180  47.0019 330.6972 0001787 264.8407  95.2274 14.58550754534938
ORBCOMM FM105           
1 41181U 15081C   26003.35199304  .00000700  00000+0  24138-3 0  9992
2 41181  47.0029 355.0672 0001152 169.5455 190.5450 14.45428628529702
ORBCOMM FM110           
1 41182U 15081D   26003.31290530  .00002280  00000+0  52086-3 0  9990
2 41182  47.0018  60.8639 0001989   7.2903 352.8011 14.58642504533558
ORBCOMM FM118           
1 41183U 15081E   26003.41600440  .00001826  00000+0  42447-3 0  9992
2 41183  47.0048  60.6793 0002978 331.2755  28.7966 14.58628684533679
ORBCOMM FM112           
1 41184U 15081F   26003.28163814  .00001772  00000+0  41295-3 0  9997
2 41184  47.0005 329.8420 0001390 206.2935 153.7880 14.58631075534873
ORBCOMM FM113           
1 41185U 15081G   26003.32744840  .00001703  00000+0  39841-3 0  9995
2 41185  47.0023 329.9850 0001361 223.8412 136.2366 14.58626632534862
